ORBVIEW 2 (SEASTAR)     
1 24883U 97037A   13083.17975715  .00000178  00000-0  81137-4 0  9897
2 24883  98.4413 200.1017 0002231  37.2473  24.3123 14.32600653830489
METEOSAT-7              
1 24932U 97049B   13081.98500162  .00000056  00000-0  00000+0 0  5618
2 24932   8.2611  53.1483 0001037  24.1111 155.4372  1.00272399 56972
NOAA 15                 
1 25338U 98030A   13082.51452943  .00000074  00000-0  50181-4 0  6669
2 25338  98.7200  73.2097 0010835  23.4528 122.6900 14.25190562772638
NOAA 16                 
1 26536U 00055A   13082.44915736  .00000059  00000-0  56049-4 0  1427
2 26536  99.0524 134.3256 0010526  23.3214 101.7924 14.12851802644466
GOES 12                 
1 26871U 01031A   13082.26583773 -.00000294  00000-0  00000+0 0  9809
2 26871   2.8694  70.1912 0004148 345.9470 160.8314  1.00265020 42795
FENGYUN 1D              
1 27431U 02024B   13082.89891362 -.00000131  00000-0 -50124-4 0   719
2 27431  98.8060  48.7743 0016061 118.4685 241.8121 14.09388613558583
NOAA 17                 
1 27453U 02032A   13082.46766439  .00000082  00000-0  52886-4 0   687
2 27453  98.3167 101.0800 0012542  61.9284  89.8378 14.24545322558510
METEOSAT-8 (MSG-1)      
1 27509U 02040B   13082.09122208  .00000014  00000-0  00000+0 0  2994
2 27509   1.9489  62.3865 0001145  21.5298 133.5455  1.00273056 38780
KALPANA-1 (METSAT 1)    
1 27525U 02043A   13082.93163541 -.00000086  00000-0  00000+0 0  6593
2 27525   3.4703  67.6054 0004336 229.2342 294.0711  1.00271729 38596
INSAT-3A                
1 27714U 03013A   13082.83004381 -.00000269  00000-0  10000-3 0  5964
2 27714   0.0071  98.6380 0004827 216.7359 258.4114  1.00271769 36499
FENGYUN 2C              
1 28451U 04042A   13082.87130763 -.00000366  00000-0  10000-3 0  6424
2 28451   4.5630  63.2761 0002131  44.5611 150.8785  1.00268634 30842
HIMAWARI-6 (MTSAT-1R)   
1 28622U 05006A   13081.24557834 -.00000293  00000-0  10000-3 0  8439
2 28622   0.0525 324.8199 0000905  46.8010  36.7112  1.00270773 29539
NOAA 18                 
1 28654U 05018A   13082.95573516  .00000242  00000-0  15764-3 0  5499
2 28654  99.0914  49.9894 0015397  89.1252 303.4089 14.11785340404036
METEOSAT-9 (MSG-2)      
1 28912U 05049B   13082.18671865  .00000054  00000-0  00000+0 0  4742
2 28912   0.4216  21.2933 0002837 319.5222 276.7336  1.00277098 26636
MTSAT-2                 
1 28937U 06004A   13082.64156851 -.00000254  00000-0  00000+0 0  3635
2 28937   0.0552 261.5548 0004296 110.2457 185.4518  1.00269220 26029
FORMOSAT-3 FM6          
1 29047U 06011A   13083.18227917  .00000150  00000-0  76501-4 0   565
2 29047  71.9789  99.7327 0053740 295.5023 130.0328 14.27623593364054
FORMOSAT-3 FM1          
1 29048U 06011B   13082.36999880  .00000211  00000-0  10145-3 0  1368
2 29048  71.9723  15.2416 0046737 251.2121 257.4018 14.27623855366414
FORMOSAT-3 FM5          
1 29049U 06011C   13082.50866458  .00000275  00000-0  12744-3 0   747
2 29049  72.0214 171.7072 0037301 299.5236 172.4495 14.27638003362217
FORMOSAT-3 FM3          
1 29050U 06011D   13082.49263939  .00000504  00000-0  12391-3 0  4042
2 29050  72.0176 222.5836 0051179  80.8906 340.9627 14.55733528371233
FORMOSAT-3 FM4          
1 29051U 06011E   13082.18452029  .00000136  00000-0  70086-4 0  1289
2 29051  72.0062  79.0520 0068890 175.2465 258.9984 14.27644003364751
FORMOSAT-3 FM2          
1 29052U 06011F   13083.18531377  .00000229  00000-0  10844-3 0  1508
2 29052  72.0346 143.4127 0043229 266.4939 153.6226 14.27697357363203
GOES 13                 
1 29155U 06018A   13082.28482965 -.00000261  00000-0  10000-3 0  4747
2 29155   0.3794 261.7684 0002410 148.5599 157.9008  1.00281392 25046
METOP-A                 
1 29499U 06044A   13082.46108796  .00000061  00000-0  48198-4 0  9993
2 29499  98.7228 143.1942 0001060  48.5226 128.0456 14.21465741333391
FENGYUN 2D              
1 29640U 06053A   13083.06264264 -.00000207  00000-0  10000-3 0  6395
2 29640   1.4217  72.4288 0001991 337.8702 240.4366  1.00268140 23090
FENGYUN 3A              
1 32958U 08026A   13083.10207781  .00000042  00000-0  40468-4 0  7792
2 32958  98.6137 150.6150 0010556  76.4863 283.7489 14.19333949249992
NOAA 19                 
1 33591U 09005A   13082.47428481  .00000241  00000-0  15707-3 0  7377
2 33591  98.8977  25.2458 0013235 315.2629 152.6609 14.11472575212404
GOES 14                 
1 35491U 09033A   13082.35711575 -.00000097  00000-0  00000+0 0  8855
2 35491   0.0612  85.8053 0002704 132.8737 345.3433  1.00271217 13714
METEOR-M 1              
1 35865U 09049A   13083.07935678 -.00000010  00000-0  14860-4 0  3066
2 35865  98.6132 137.5532 0002311 344.8461  15.2646 14.21881667182370
GOES 15                 
1 36411U 10008A   13082.42975061  .00000077  00000-0  10000-3 0  4951
2 36411   0.0067 162.4982 0001320 112.4239 285.5817  1.00278183 11211
COMS 1                  
1 36744U 10032A   13082.78577427 -.00000355  00000-0  10000-3 0  5401
2 36744   0.0135 109.3105 0001032 225.5436 257.6327  1.00270841 10182
FENGYUN 3B              
1 37214U 10059A   13083.19621132  .00000089  00000-0  63697-4 0  6294
2 37214  98.7936  28.5726 0000847  18.4385 341.6823 14.19321670123501
ELEKTRO-L 1 (GOMS 2)    
1 37344U 11001A   13082.97838764 -.00000109  00000-0  00000+0 0  5705
2 37344   0.0900  54.5434 0000777  37.7550 157.6405  1.00271945  8011
SUOMI NPP               
1 37849U 11061A   13083.15675892  .00000058  00000-0  48185-4 0  4479
2 37849  98.7471  22.6938 0000506  70.2997  43.6179 14.19532528 72755
FENGYUN 2F              
1 38049U 12002A   13082.87040270 -.00000369  00000-0  10000-3 0  3190
2 38049   1.4593 277.7305 0003809 233.7665  95.2831  1.00273470  4423
METOP-B                 
1 38771U 12049A   13082.18355697  .00000066  00000-0  50195-4 0  1640
2 38771  98.7117 143.6923 0003119  83.0123 277.1409 14.21490729 26490
